NIMIQ 2                 
1 27632U 02062A   26181.60073001 -.00000065  00000+0  00000+0 0  9995
2 27632   9.4753  56.7546 0005736  38.3183 290.6738  1.00272225 44318
ANIK F2                 
1 28378U 04027A   26181.60173164 -.00000042  00000+0  00000+0 0  9992
2 28378   3.3203  79.2758 0004258  18.2692 286.6239  1.00272501 41397
ANIK F1R                
1 28868U 05036A   26181.60041993 -.00000068  00000+0  00000+0 0  9999
2 28868   4.3453  76.4186 0004408  11.3076 299.7892  1.00272154 46580
ANIK F3                 
1 31102U 07009A   26181.60614260  .00000009  00000+0  00000+0 0  9993
2 31102   1.2306  83.7073 0002912  12.9047 281.5610  1.00271170 46693
NIMIQ 4                 
1 33373U 08044A   26181.49894733  .00000000  00000+0  00000+0 0  9998
2 33373   0.0361  56.9543 0001878  46.1819 273.0953  1.00267554 65118
TELSTAR 11N             
1 34111U 09009A   26181.50778737 -.00000240  00000+0  00000+0 0  9995
2 34111   0.0186  25.7793 0002759  74.2553 323.7815  1.00270347 46372
TERRESTAR-1             
1 35496U 09035A   26181.39628147 -.00000049  00000+0  00000+0 0  9994
2 35496   5.1873  48.7895 0002606  41.8300 219.4885  1.00270755 62264
NIMIQ 5                 
1 35873U 09050A   26181.61245895 -.00000246  00000+0  00000+0 0  9999
2 35873   0.0304 279.9511 0003031 170.9963 335.5151  1.00271111 61476
SKYTERRA 1              
1 37218U 10061A   26181.59810145 -.00000111  00000+0  00000+0 0  9992
2 37218   5.1524  50.8321 0002375  33.3282 308.5189  1.00269841 57329
TELSTAR 14R             
1 37602U 11021A   26181.50276068 -.00000269  00000+0  00000+0 0  9991
2 37602   0.0506  81.4829 0002384 351.0986 323.9933  1.00270291 55961
NIMIQ 6                 
1 38342U 12026A   26181.49712731 -.00000163  00000+0  00000+0 0  9992
2 38342   0.0447 276.7484 0002965 183.7263 265.9486  1.00273166 50547
ANIK G1                 
1 39127U 13014A   26181.60026758 -.00000063  00000+0  00000+0 0  9991
2 39127   0.0171 337.4868 0001982 122.5994 287.3675  1.00272041 48382
TELSTAR 12V             
1 41036U 15068A   26181.44091475  .00000000  00000+0  00000+0 0  9994
2 41036   0.0264  33.0699 0002589  62.6786 326.5055  1.00269821 38755
VIASAT-2                
1 42740U 17029A   26180.57460944 -.00000254  00000+0  00000+0 0  9992
2 42740   0.0183 302.2304 0000500 140.7256 331.6830  1.00273030 33326
LEO 1 (LEO VANTAGE 1)   
1 43113U 18004C   26181.33812335  .00004709  00000+0  32457-3 0  9994
2 43113  99.2433 101.3437 0350622  39.2439 323.3625 14.67904324439416
TELSTAR 19V             
1 43562U 18059A   26180.57590946 -.00000269  00000+0  00000+0 0  9991
2 43562   0.0124  66.7930 0003024  50.1814 305.0096  1.00277010 29268
TELSTAR 18V             
1 43611U 18069A   26181.04314153 -.00000283  00000+0  00000+0 0  9990
2 43611   0.0154 306.8938 0002171 142.7472 341.9947  1.00271220 28767
AMOS-17                 
1 44479U 19050A   26181.51844742  .00000120  00000+0  00000+0 0  9997
2 44479   0.0198 333.6632 0002337 154.7273 353.8364  1.00273646 25321
